{
  "type": "FeatureCollection",
  "name": "Batas_Kelurahan_Bubakan_Original",
  "features": [
    {
      "type": "Feature",
      "properties": {
        "fid": 16,
        "kelurahan": "Bubakan",
        "kode_wilayah": "33.74.14.1002"
      },
      "geometry": {
        "type": "Polygon",
        "coordinates": [
          [
            [
              110.329927,
              -7.083757
            ],
            [
              110.329873,
              -7.083453
            ],
            [
              110.329771,
              -7.083224
            ],
            [
              110.329514,
              -7.083523
            ],
            [
              110.329288,
              -7.083868
            ],
            [
              110.329162,
              -7.083978
            ],
            [
              110.329028,
              -7.084015
            ],
            [
              110.328856,
              -7.083962
            ],
            [
              110.328666,
              -7.084007
            ],
            [
              110.328537,
              -7.084041
            ],
            [
              110.328484,
              -7.084103
            ],
            [
              110.328395,
              -7.084364
            ],
            [
              110.328371,
              -7.084521
            ],
            [
              110.32821,
              -7.08471
            ],
            [
              110.328111,
              -7.08472
            ],
            [
              110.327861,
              -7.08455
            ],
            [
              110.327561,
              -7.08438
            ],
            [
              110.327271,
              -7.084284
            ],
            [
              110.326885,
              -7.084273
            ],
            [
              110.326477,
              -7.084289
            ],
            [
              110.32608,
              -7.084294
            ],
            [
              110.325807,
              -7.084231
            ],
            [
              110.325689,
              -7.084108
            ],
            [
              110.325286,
              -7.084465
            ],
            [
              110.324954,
              -7.084779
            ],
            [
              110.324653,
              -7.084928
            ],
            [
              110.324138,
              -7.084896
            ],
            [
              110.323704,
              -7.085034
            ],
            [
              110.323307,
              -7.085029
            ],
            [
              110.320587,
              -7.085024
            ],
            [
              110.319525,
              -7.084992
            ],
            [
              110.318238,
              -7.084971
            ],
            [
              110.317275,
              -7.084981
            ],
            [
              110.316556,
              -7.085056
            ],
            [
              110.316175,
              -7.08516
            ],
            [
              110.315979,
              -7.085287
            ],
            [
              110.315888,
              -7.085362
            ],
            [
              110.315848,
              -7.08545
            ],
            [
              110.315826,
              -7.085657
            ],
            [
              110.315732,
              -7.086296
            ],
            [
              110.314977,
              -7.08628
            ],
            [
              110.314713,
              -7.086317
            ],
            [
              110.31456,
              -7.086319
            ],
            [
              110.314364,
              -7.08628
            ],
            [
              110.31417,
              -7.086269
            ],
            [
              110.314064,
              -7.086335
            ],
            [
              110.313946,
              -7.086474
            ],
            [
              110.313874,
              -7.086602
            ],
            [
              110.313848,
              -7.086718
            ],
            [
              110.313844,
              -7.086858
            ],
            [
              110.313899,
              -7.087133
            ],
            [
              110.314,
              -7.087576
            ],
            [
              110.314128,
              -7.087986
            ],
            [
              110.31426,
              -7.088332
            ],
            [
              110.31444,
              -7.088753
            ],
            [
              110.314552,
              -7.088936
            ],
            [
              110.314788,
              -7.089136
            ],
            [
              110.314894,
              -7.089259
            ],
            [
              110.314953,
              -7.089394
            ],
            [
              110.314926,
              -7.089541
            ],
            [
              110.314757,
              -7.089841
            ],
            [
              110.314469,
              -7.090166
            ],
            [
              110.314195,
              -7.090446
            ],
            [
              110.313957,
              -7.090749
            ],
            [
              110.313753,
              -7.091087
            ],
            [
              110.313664,
              -7.091279
            ],
            [
              110.313648,
              -7.091391
            ],
            [
              110.313659,
              -7.091574
            ],
            [
              110.313718,
              -7.091726
            ],
            [
              110.313984,
              -7.091862
            ],
            [
              110.31419,
              -7.091931
            ],
            [
              110.314271,
              -7.092016
            ],
            [
              110.314252,
              -7.092168
            ],
            [
              110.314381,
              -7.092354
            ],
            [
              110.314488,
              -7.092567
            ],
            [
              110.314558,
              -7.092966
            ],
            [
              110.314735,
              -7.093525
            ],
            [
              110.314792,
              -7.093662
            ],
            [
              110.314954,
              -7.094047
            ],
            [
              110.315019,
              -7.094452
            ],
            [
              110.31519,
              -7.095154
            ],
            [
              110.315276,
              -7.095633
            ],
            [
              110.315158,
              -7.096006
            ],
            [
              110.31504,
              -7.096283
            ],
            [
              110.314772,
              -7.096581
            ],
            [
              110.314633,
              -7.096985
            ],
            [
              110.314676,
              -7.097283
            ],
            [
              110.314858,
              -7.097635
            ],
            [
              110.315534,
              -7.098306
            ],
            [
              110.315652,
              -7.098817
            ],
            [
              110.31562,
              -7.099274
            ],
            [
              110.315588,
              -7.099498
            ],
            [
              110.315609,
              -7.09986
            ],
            [
              110.315909,
              -7.10019
            ],
            [
              110.316338,
              -7.100552
            ],
            [
              110.316521,
              -7.100882
            ],
            [
              110.316811,
              -7.101627
            ],
            [
              110.317197,
              -7.102128
            ],
            [
              110.317175,
              -7.102564
            ],
            [
              110.317079,
              -7.102841
            ],
            [
              110.316929,
              -7.103054
            ],
            [
              110.316888,
              -7.103339
            ],
            [
              110.316811,
              -7.103443
            ],
            [
              110.316824,
              -7.103522
            ],
            [
              110.316958,
              -7.103637
            ],
            [
              110.317063,
              -7.103794
            ],
            [
              110.317004,
              -7.1039
            ],
            [
              110.316797,
              -7.104017
            ],
            [
              110.316623,
              -7.104124
            ],
            [
              110.31651,
              -7.104433
            ],
            [
              110.316789,
              -7.104731
            ],
            [
              110.316896,
              -7.105114
            ],
            [
              110.31688,
              -7.105625
            ],
            [
              110.316921,
              -7.105747
            ],
            [
              110.317052,
              -7.105904
            ],
            [
              110.317178,
              -7.106109
            ],
            [
              110.317192,
              -7.106243
            ],
            [
              110.317208,
              -7.106384
            ],
            [
              110.317366,
              -7.106338
            ],
            [
              110.317489,
              -7.106269
            ],
            [
              110.317556,
              -7.105857
            ],
            [
              110.317715,
              -7.105889
            ],
            [
              110.318184,
              -7.106024
            ],
            [
              110.318399,
              -7.106157
            ],
            [
              110.31864,
              -7.106211
            ],
            [
              110.31887,
              -7.106227
            ],
            [
              110.318999,
              -7.10603
            ],
            [
              110.319048,
              -7.105992
            ],
            [
              110.319391,
              -7.105763
            ],
            [
              110.319702,
              -7.105545
            ],
            [
              110.320265,
              -7.105364
            ],
            [
              110.320405,
              -7.104699
            ],
            [
              110.320598,
              -7.1043
            ],
            [
              110.321108,
              -7.103932
            ],
            [
              110.322178,
              -7.103099
            ],
            [
              110.322513,
              -7.102466
            ],
            [
              110.322701,
              -7.102224
            ],
            [
              110.322862,
              -7.102053
            ],
            [
              110.32299,
              -7.102005
            ],
            [
              110.32313,
              -7.101867
            ],
            [
              110.32306,
              -7.101366
            ],
            [
              110.323006,
              -7.100988
            ],
            [
              110.323065,
              -7.100754
            ],
            [
              110.32321,
              -7.100706
            ],
            [
              110.323312,
              -7.100525
            ],
            [
              110.323463,
              -7.100211
            ],
            [
              110.323682,
              -7.099913
            ],
            [
              110.323736,
              -7.099658
            ],
            [
              110.323436,
              -7.099328
            ],
            [
              110.323307,
              -7.09895
            ],
            [
              110.323345,
              -7.098774
            ],
            [
              110.323629,
              -7.098391
            ],
            [
              110.324037,
              -7.09814
            ],
            [
              110.32424,
              -7.097768
            ],
            [
              110.324374,
              -7.097252
            ],
            [
              110.324353,
              -7.096879
            ],
            [
              110.324535,
              -7.096474
            ],
            [
              110.324723,
              -7.096288
            ],
            [
              110.324884,
              -7.096049
            ],
            [
              110.324881,
              -7.095705
            ],
            [
              110.324927,
              -7.095479
            ],
            [
              110.325013,
              -7.095346
            ],
            [
              110.32523,
              -7.095205
            ],
            [
              110.325434,
              -7.095109
            ],
            [
              110.32548,
              -7.094962
            ],
            [
              110.325616,
              -7.094782
            ],
            [
              110.325715,
              -7.094664
            ],
            [
              110.325866,
              -7.094513
            ],
            [
              110.326056,
              -7.094348
            ],
            [
              110.32618,
              -7.094271
            ],
            [
              110.326273,
              -7.094055
            ],
            [
              110.326445,
              -7.093722
            ],
            [
              110.326593,
              -7.093597
            ],
            [
              110.326708,
              -7.093485
            ],
            [
              110.326839,
              -7.093411
            ],
            [
              110.326998,
              -7.093376
            ],
            [
              110.327083,
              -7.093294
            ],
            [
              110.327129,
              -7.093198
            ],
            [
              110.327185,
              -7.092929
            ],
            [
              110.327239,
              -7.092783
            ],
            [
              110.327218,
              -7.092594
            ],
            [
              110.327293,
              -7.092407
            ],
            [
              110.327395,
              -7.092258
            ],
            [
              110.327405,
              -7.092157
            ],
            [
              110.327405,
              -7.091912
            ],
            [
              110.327481,
              -7.091737
            ],
            [
              110.327534,
              -7.091391
            ],
            [
              110.327459,
              -7.091172
            ],
            [
              110.327336,
              -7.091098
            ],
            [
              110.327175,
              -7.091007
            ],
            [
              110.326885,
              -7.090954
            ],
            [
              110.326595,
              -7.090816
            ],
            [
              110.326472,
              -7.090571
            ],
            [
              110.326456,
              -7.090347
            ],
            [
              110.326456,
              -7.089996
            ],
            [
              110.326386,
              -7.08973
            ],
            [
              110.326279,
              -7.089442
            ],
            [
              110.326139,
              -7.089389
            ],
            [
              110.325919,
              -7.089336
            ],
            [
              110.325831,
              -7.089269
            ],
            [
              110.325809,
              -7.089184
            ],
            [
              110.325839,
              -7.089128
            ],
            [
              110.325922,
              -7.089062
            ],
            [
              110.325952,
              -7.08903
            ],
            [
              110.326,
              -7.088878
            ],
            [
              110.326021,
              -7.088521
            ],
            [
              110.326005,
              -7.088271
            ],
            [
              110.326067,
              -7.088205
            ],
            [
              110.326172,
              -7.088135
            ],
            [
              110.326381,
              -7.088066
            ],
            [
              110.326566,
              -7.087976
            ],
            [
              110.326684,
              -7.087914
            ],
            [
              110.32685,
              -7.087869
            ],
            [
              110.326955,
              -7.087845
            ],
            [
              110.327132,
              -7.087821
            ],
            [
              110.327328,
              -7.08785
            ],
            [
              110.32747,
              -7.087784
            ],
            [
              110.327548,
              -7.087704
            ],
            [
              110.327641,
              -7.087536
            ],
            [
              110.327714,
              -7.087472
            ],
            [
              110.327896,
              -7.087401
            ],
            [
              110.328087,
              -7.087347
            ],
            [
              110.328183,
              -7.087292
            ],
            [
              110.328307,
              -7.087206
            ],
            [
              110.328406,
              -7.087148
            ],
            [
              110.328532,
              -7.087092
            ],
            [
              110.328663,
              -7.087095
            ],
            [
              110.328771,
              -7.087124
            ],
            [
              110.32898,
              -7.087012
            ],
            [
              110.329063,
              -7.0869
            ],
            [
              110.329181,
              -7.086855
            ],
            [
              110.329345,
              -7.086706
            ],
            [
              110.329436,
              -7.086615
            ],
            [
              110.329664,
              -7.086509
            ],
            [
              110.32991,
              -7.0864
            ],
            [
              110.33012,
              -7.086229
            ],
            [
              110.330267,
              -7.086086
            ],
            [
              110.330337,
              -7.08595
            ],
            [
              110.330299,
              -7.085849
            ],
            [
              110.330203,
              -7.08575
            ],
            [
              110.329999,
              -7.085657
            ],
            [
              110.329894,
              -7.085503
            ],
            [
              110.329956,
              -7.085378
            ],
            [
              110.330018,
              -7.085157
            ],
            [
              110.330179,
              -7.08505
            ],
            [
              110.330356,
              -7.084848
            ],
            [
              110.330409,
              -7.084545
            ],
            [
              110.330125,
              -7.084247
            ],
            [
              110.329996,
              -7.084103
            ],
            [
              110.329927,
              -7.083757
            ]
          ]
        ]
      }
    }
  ]
}